[
  {
    "OBJECT_NAME": "STARLINK-3352",
    "OBJECT_ID": "22005AV",
    "EPOCH": "2025-11-11T03:43:51.345696",
    "MEAN_MOTION": 15.15503604,
    "ECCENTRICITY": 0.0005658,
    "INCLINATION": 53.2107,
    "RA_OF_ASC_NODE": 118.8232,
    "ARG_OF_PERICENTER": 126.4943,
    "MEAN_ANOMALY": 233.6574,
    "EPHEMERIS_TYPE": 0,
    "CLASSIFICATION_TYPE": "U",
    "NORAD_CAT_ID": 51147,
    "ELEMENT_SET_NO": 999,
    "REV_AT_EPOCH": 21073,
    "BSTAR": 0.0020346,
    "MEAN_MOTION_DOT": 0.00038905,
    "MEAN_MOTION_DDOT": 0.0,
    "TLE_LINE1": "1 51147U 22005AV  25315.15545539  .00038905  00000+0  20346-2 0  9991",
    "TLE_LINE2": "2 51147  53.2107 118.8232 0005658 126.4943 233.6574 15.15503604210739",
    "COMMENT": "Grouped by shell and plane from TLE"
  },
  {
    "OBJECT_NAME": "STARLINK-3357",
    "OBJECT_ID": "22005AY",
    "EPOCH": "2025-11-10T11:53:22.134912",
    "MEAN_MOTION": 15.08841412,
    "ECCENTRICITY": 0.0001519,
    "INCLINATION": 53.2189,
    "RA_OF_ASC_NODE": 113.8204,
    "ARG_OF_PERICENTER": 93.5598,
    "MEAN_ANOMALY": 266.5568,
    "EPHEMERIS_TYPE": 0,
    "CLASSIFICATION_TYPE": "U",
    "NORAD_CAT_ID": 51150,
    "ELEMENT_SET_NO": 999,
    "REV_AT_EPOCH": 21075,
    "BSTAR": 8.8325e-05,
    "MEAN_MOTION_DOT": 1.118e-05,
    "MEAN_MOTION_DDOT": 0.0,
    "TLE_LINE1": "1 51150U 22005AY  25314.49539508  .00001118  00000+0  88325-4 0  9999",
    "TLE_LINE2": "2 51150  53.2189 113.8204 0001519  93.5598 266.5568 15.08841412210753",
    "COMMENT": "Grouped by shell and plane from TLE"
  },
  {
    "OBJECT_NAME": "STARLINK-4738",
    "OBJECT_ID": "22114B",
    "EPOCH": "2025-11-11T04:31:39.138816",
    "MEAN_MOTION": 15.0884594,
    "ECCENTRICITY": 0.0001472,
    "INCLINATION": 53.2161,
    "RA_OF_ASC_NODE": 115.963,
    "ARG_OF_PERICENTER": 82.6485,
    "MEAN_ANOMALY": 277.4674,
    "EPHEMERIS_TYPE": 0,
    "CLASSIFICATION_TYPE": "U",
    "NORAD_CAT_ID": 53819,
    "ELEMENT_SET_NO": 999,
    "REV_AT_EPOCH": 17494,
    "BSTAR": 0.00011703,
    "MEAN_MOTION_DOT": 1.575e-05,
    "MEAN_MOTION_DDOT": 0.0,
    "TLE_LINE1": "1 53819U 22114B   25315.18864744  .00001575  00000+0  11703-3 0  9996",
    "TLE_LINE2": "2 53819  53.2161 115.9630 0001472  82.6485 277.4674 15.08845940174944",
    "COMMENT": "Grouped by shell and plane from TLE"
  },
  {
    "OBJECT_NAME": "STARLINK-4758",
    "OBJECT_ID": "22114C",
    "EPOCH": "2025-11-11T03:44:00.742560",
    "MEAN_MOTION": 15.08842012,
    "ECCENTRICITY": 6.27e-05,
    "INCLINATION": 53.2156,
    "RA_OF_ASC_NODE": 116.4617,
    "ARG_OF_PERICENTER": 92.4225,
    "MEAN_ANOMALY": 267.6839,
    "EPHEMERIS_TYPE": 0,
    "CLASSIFICATION_TYPE": "U",
    "NORAD_CAT_ID": 53820,
    "ELEMENT_SET_NO": 999,
    "REV_AT_EPOCH": 17493,
    "BSTAR": 0.00014628,
    "MEAN_MOTION_DOT": 2.041e-05,
    "MEAN_MOTION_DDOT": 0.0,
    "TLE_LINE1": "1 53820U 22114C   25315.15556415  .00002041  00000+0  14628-3 0  9996",
    "TLE_LINE2": "2 53820  53.2156 116.4617 0000627  92.4225 267.6839 15.08842012174933",
    "COMMENT": "Grouped by shell and plane from TLE"
  },
  {
    "OBJECT_NAME": "STARLINK-4757",
    "OBJECT_ID": "22114G",
    "EPOCH": "2025-11-11T03:27:59.986656",
    "MEAN_MOTION": 15.08826676,
    "ECCENTRICITY": 0.0001474,
    "INCLINATION": 53.2155,
    "RA_OF_ASC_NODE": 115.6974,
    "ARG_OF_PERICENTER": 99.4202,
    "MEAN_ANOMALY": 260.6957,
    "EPHEMERIS_TYPE": 0,
    "CLASSIFICATION_TYPE": "U",
    "NORAD_CAT_ID": 53824,
    "ELEMENT_SET_NO": 999,
    "REV_AT_EPOCH": 17485,
    "BSTAR": 0.00020748,
    "MEAN_MOTION_DOT": 3.014e-05,
    "MEAN_MOTION_DDOT": 0.0,
    "TLE_LINE1": "1 53824U 22114G   25315.14444429  .00003014  00000+0  20748-3 0  9991",
    "TLE_LINE2": "2 53824  53.2155 115.6974 0001474  99.4202 260.6957 15.08826676174859",
    "COMMENT": "Grouped by shell and plane from TLE"
  },
  {
    "OBJECT_NAME": "STARLINK-4751",
    "OBJECT_ID": "22114H",
    "EPOCH": "2025-11-10T19:36:28.536480",
    "MEAN_MOTION": 15.0883866,
    "ECCENTRICITY": 0.0001314,
    "INCLINATION": 53.2156,
    "RA_OF_ASC_NODE": 117.9017,
    "ARG_OF_PERICENTER": 89.0219,
    "MEAN_ANOMALY": 271.0923,
    "EPHEMERIS_TYPE": 0,
    "CLASSIFICATION_TYPE": "U",
    "NORAD_CAT_ID": 53825,
    "ELEMENT_SET_NO": 999,
    "REV_AT_EPOCH": 17488,
    "BSTAR": 5.503700000000001e-05,
    "MEAN_MOTION_DOT": 5.88e-06,
    "MEAN_MOTION_DDOT": 0.0,
    "TLE_LINE1": "1 53825U 22114H   25314.81699695  .00000588  00000+0  55037-4 0  9995",
    "TLE_LINE2": "2 53825  53.2156 117.9017 0001314  89.0219 271.0923 15.08838660174888",
    "COMMENT": "Grouped by shell and plane from TLE"
  },
  {
    "OBJECT_NAME": "STARLINK-4756",
    "OBJECT_ID": "22114J",
    "EPOCH": "2025-11-10T20:45:19.795680",
    "MEAN_MOTION": 15.08840748,
    "ECCENTRICITY": 0.0001559,
    "INCLINATION": 53.2163,
    "RA_OF_ASC_NODE": 117.4902,
    "ARG_OF_PERICENTER": 85.7705,
    "MEAN_ANOMALY": 274.3465,
    "EPHEMERIS_TYPE": 0,
    "CLASSIFICATION_TYPE": "U",
    "NORAD_CAT_ID": 53826,
    "ELEMENT_SET_NO": 999,
    "REV_AT_EPOCH": 17489,
    "BSTAR": 5.597e-05,
    "MEAN_MOTION_DOT": 6.03e-06,
    "MEAN_MOTION_DDOT": 0.0,
    "TLE_LINE1": "1 53826U 22114J   25314.86481245  .00000603  00000+0  55970-4 0  9995",
    "TLE_LINE2": "2 53826  53.2163 117.4902 0001559  85.7705 274.3465 15.08840748174897",
    "COMMENT": "Grouped by shell and plane from TLE"
  },
  {
    "OBJECT_NAME": "STARLINK-4764",
    "OBJECT_ID": "22114K",
    "EPOCH": "2025-11-10T11:28:56.010720",
    "MEAN_MOTION": 15.08839531,
    "ECCENTRICITY": 0.0001354,
    "INCLINATION": 53.2171,
    "RA_OF_ASC_NODE": 119.3436,
    "ARG_OF_PERICENTER": 87.9755,
    "MEAN_ANOMALY": 272.1392,
    "EPHEMERIS_TYPE": 0,
    "CLASSIFICATION_TYPE": "U",
    "NORAD_CAT_ID": 53827,
    "ELEMENT_SET_NO": 999,
    "REV_AT_EPOCH": 17483,
    "BSTAR": 4.6708e-06,
    "MEAN_MOTION_DOT": -2.14e-06,
    "MEAN_MOTION_DDOT": 0.0,
    "TLE_LINE1": "1 53827U 22114K   25314.47842605 -.00000214  00000+0  46708-5 0  9993",
    "TLE_LINE2": "2 53827  53.2171 119.3436 0001354  87.9755 272.1392 15.08839531174839",
    "COMMENT": "Grouped by shell and plane from TLE"
  },
  {
    "OBJECT_NAME": "STARLINK-4760",
    "OBJECT_ID": "22114L",
    "EPOCH": "2025-11-10T20:40:01.085088",
    "MEAN_MOTION": 15.08848053,
    "ECCENTRICITY": 0.0001428,
    "INCLINATION": 53.2167,
    "RA_OF_ASC_NODE": 117.4665,
    "ARG_OF_PERICENTER": 90.6723,
    "MEAN_ANOMALY": 269.4433,
    "EPHEMERIS_TYPE": 0,
    "CLASSIFICATION_TYPE": "U",
    "NORAD_CAT_ID": 53828,
    "ELEMENT_SET_NO": 999,
    "REV_AT_EPOCH": 17489,
    "BSTAR": 9.7886e-05,
    "MEAN_MOTION_DOT": 1.271e-05,
    "MEAN_MOTION_DDOT": 0.0,
    "TLE_LINE1": "1 53828U 22114L   25314.86112367  .00001271  00000+0  97886-4 0  9997",
    "TLE_LINE2": "2 53828  53.2167 117.4665 0001428  90.6723 269.4433 15.08848053174896",
    "COMMENT": "Grouped by shell and plane from TLE"
  },
  {
    "OBJECT_NAME": "STARLINK-4759",
    "OBJECT_ID": "22114M",
    "EPOCH": "2025-11-10T11:23:38.400864",
    "MEAN_MOTION": 15.08831671,
    "ECCENTRICITY": 0.000115,
    "INCLINATION": 53.2169,
    "RA_OF_ASC_NODE": 119.3203,
    "ARG_OF_PERICENTER": 90.1477,
    "MEAN_ANOMALY": 269.9647,
    "EPHEMERIS_TYPE": 0,
    "CLASSIFICATION_TYPE": "U",
    "NORAD_CAT_ID": 53829,
    "ELEMENT_SET_NO": 999,
    "REV_AT_EPOCH": 17483,
    "BSTAR": 0.00040959000000000004,
    "MEAN_MOTION_DOT": 6.235e-05,
    "MEAN_MOTION_DDOT": 0.0,
    "TLE_LINE1": "1 53829U 22114M   25314.47475001  .00006235  00000+0  40959-3 0  9995",
    "TLE_LINE2": "2 53829  53.2169 119.3203 0001150  90.1477 269.9647 15.08831671174835",
    "COMMENT": "Grouped by shell and plane from TLE"
  },
  {
    "OBJECT_NAME": "STARLINK-4761",
    "OBJECT_ID": "22114N",
    "EPOCH": "2025-11-10T20:29:24.741312",
    "MEAN_MOTION": 15.08845325,
    "ECCENTRICITY": 9.07e-05,
    "INCLINATION": 53.2173,
    "RA_OF_ASC_NODE": 117.4226,
    "ARG_OF_PERICENTER": 88.7159,
    "MEAN_ANOMALY": 271.3937,
    "EPHEMERIS_TYPE": 0,
    "CLASSIFICATION_TYPE": "U",
    "NORAD_CAT_ID": 53830,
    "ELEMENT_SET_NO": 999,
    "REV_AT_EPOCH": 17489,
    "BSTAR": 7.300100000000001e-05,
    "MEAN_MOTION_DOT": 8.74e-06,
    "MEAN_MOTION_DDOT": 0.0,
    "TLE_LINE1": "1 53830U 22114N   25314.85375858  .00000874  00000+0  73001-4 0  9996",
    "TLE_LINE2": "2 53830  53.2173 117.4226 0000907  88.7159 271.3937 15.08845325174891",
    "COMMENT": "Grouped by shell and plane from TLE"
  },
  {
    "OBJECT_NAME": "STARLINK-4649",
    "OBJECT_ID": "22114P",
    "EPOCH": "2025-11-10T17:39:51.482592",
    "MEAN_MOTION": 15.08844623,
    "ECCENTRICITY": 0.0001499,
    "INCLINATION": 53.216,
    "RA_OF_ASC_NODE": 118.1082,
    "ARG_OF_PERICENTER": 85.4694,
    "MEAN_ANOMALY": 274.6469,
    "EPHEMERIS_TYPE": 0,
    "CLASSIFICATION_TYPE": "U",
    "NORAD_CAT_ID": 53831,
    "ELEMENT_SET_NO": 999,
    "REV_AT_EPOCH": 17487,
    "BSTAR": 0.0,
    "MEAN_MOTION_DOT": -3.285e-05,
    "MEAN_MOTION_DDOT": 0.0,
    "TLE_LINE1": "1 53831U 22114P   25314.73601253 -.00003285  00000+0 -18836-3 0  9990",
    "TLE_LINE2": "2 53831  53.2160 118.1082 0001499  85.4694 274.6469 15.08844623174875",
    "COMMENT": "Grouped by shell and plane from TLE"
  },
  {
    "OBJECT_NAME": "STARLINK-4747",
    "OBJECT_ID": "22114Q",
    "EPOCH": "2025-11-11T04:15:43.764768",
    "MEAN_MOTION": 15.08838149,
    "ECCENTRICITY": 7.41e-05,
    "INCLINATION": 53.2193,
    "RA_OF_ASC_NODE": 115.8913,
    "ARG_OF_PERICENTER": 96.1334,
    "MEAN_ANOMALY": 263.9743,
    "EPHEMERIS_TYPE": 0,
    "CLASSIFICATION_TYPE": "U",
    "NORAD_CAT_ID": 53832,
    "ELEMENT_SET_NO": 999,
    "REV_AT_EPOCH": 17494,
    "BSTAR": 1.93e-05,
    "MEAN_MOTION_DOT": 2e-07,
    "MEAN_MOTION_DDOT": 0.0,
    "TLE_LINE1": "1 53832U 22114Q   25315.17758987  .00000020  00000+0  19300-4 0  9997",
    "TLE_LINE2": "2 53832  53.2193 115.8913 0000741  96.1334 263.9743 15.08838149174948",
    "COMMENT": "Grouped by shell and plane from TLE"
  }
]